IRIDIUM 106             
1 41917U 17003A   26026.39562729  .00000368  00000+0  12444-3 0  9996
2 41917  86.4023 147.8151 0002036  84.7837 275.3591 14.34217589472887
IRIDIUM 103             
1 41918U 17003B   26026.38294049  .00000244  00000+0  80148-4 0  9993
2 41918  86.4020 147.7206 0002446  97.4307 262.7166 14.34217618472907
IRIDIUM 109             
1 41919U 17003C   26026.38928615  .00000502  00000+0  17222-3 0  9996
2 41919  86.4022 147.7751 0002097  96.3080 263.8355 14.34218225472876
IRIDIUM 102             
1 41920U 17003D   26026.42733873  .00000272  00000+0  90018-4 0  9992
2 41920  86.4020 147.6859 0002007  97.8842 262.2582 14.34217326472963
IRIDIUM 105             
1 41921U 17003E   26026.32829985  .00000499  00000+0  17108-3 0  9991
2 41921  86.3986 116.2106 0002112  96.6981 263.4456 14.34218298474806
IRIDIUM 104             
1 41922U 17003F   26026.37025125  .00000516  00000+0  17727-3 0  9998
2 41922  86.4020 147.7500 0002275 104.9624 255.1824 14.34216006472946
IRIDIUM 114             
1 41923U 17003G   26026.37659888  .00000240  00000+0  78466-4 0  9990
2 41923  86.4014 147.7310 0002219  99.7753 260.3693 14.34217541472926
IRIDIUM 108             
1 41924U 17003H   26026.47464611  .00000299  00000+0  99541-4 0  9991
2 41924  86.3977 116.0363 0002013  96.0730 264.0696 14.34220706474796
